X,Y,学校名,施設名,施設名かな,所在地,地区名
135.5189473,34.69630011,滝川,大阪市立滝川小学校,おおさかしりつたきがわしょうがっこう,北区天満1-24-15,北区
135.5131059,34.69815797,堀川,大阪市立堀川小学校,おおさかしりつほりかわしょうがっこう,北区東天満2-10-7,北区
135.5067533,34.69666089,西天満,大阪市立西天満小学校,おおさかしりつにしてんましょうがっこう,北区西天満3-12-21,北区
135.5137251,34.70851897,菅北,大阪市立菅北小学校,おおさかしりつかんぼくしょうがっこう,北区菅栄町9-5,北区
135.5153751,34.71343297,豊崎東,大阪市立豊崎東小学校,おおさかしりつとよさきひがししょうがっこう,北区長柄中2-3-30,北区
135.5059583,34.71276689,豊崎本庄,大阪市立豊崎本庄小学校,おおさかしりつとよさきほんじょうしょうがっこう,北区本庄西2-1-16,北区
135.4939469,34.71346397,中津,大阪市立中津小学校,おおさかしりつなかつしょうがっこう,北区中津3-34-18,北区
135.4827002,34.70368592,大淀,大阪市立大淀小学校,おおさかしりつおおよどしょうがっこう,北区大淀中4-10-33,北区
135.5139333,34.716744,豊仁,大阪市立豊仁小学校,おおさかしりつほうじんしょうがっこう,北区長柄西2-6-20,北区
135.5003643,34.71238108,豊崎,大阪市立豊崎小学校,おおさかしりつとよさきしょうがっこう,北区豊崎4-5-9,北区
135.5067782,34.70477817,扇町,大阪市立扇町小学校,おおさかしりつおうぎまちしょうがっこう,北区扇町2-7-24,北区
135.5273561,34.69659997,桜宮,大阪市立桜宮小学校,おおさかしりつさくらのみやしょうがっこう,都島区東野田町1-10-19,都島区
135.5241923,34.70298914,中野,大阪市立中野小学校,おおさかしりつなかのしょうがっこう,都島区中野町3-10-5,都島区
135.5335613,34.71821414,高倉,大阪市立高倉小学校,おおさかしりつたかくらしょうがっこう,都島区高倉町3-3-10,都島区
135.5215223,34.72165603,淀川,大阪市立淀川小学校,おおさかしりつよどがわしょうがっこう,都島区毛馬町3-5-39,都島区
135.5282192,34.70726689,都島,大阪市立都島小学校,おおさかしりつみやこじましょうがっこう,都島区都島本通3-10-3,都島区
135.5373558,34.71346103,内代,大阪市立内代小学校,おおさかしりつうちんだいしょうがっこう,都島区内代町3-4-6,都島区
135.5341919,34.70809989,東都島,大阪市立東都島小学校,おおさかしりつひがしみやこじましょうがっこう,都島区都島本通4-24-20,都島区
135.5252999,34.72312792,大東,大阪市立大東小学校,おおさかしりつだいとうしょうがっこう,都島区毛馬町2-11-111,都島区
135.5261138,34.7195,友渕,大阪市立友渕小学校,おおさかしりつともぶちしょうがっこう,都島区友渕町1-3-123,都島区
135.5223779,34.71690311,友渕分校,大阪市立友渕小学校分校,おおさかしりつともぶちしょうがっこうぶんこう,都島区友渕町1-3-187,都島区
135.4832722,34.69365594,福島,大阪市立福島小学校,おおさかしりつふくしましょうがっこう,福島区福島4-5-6,福島区
135.4810078,34.69223303,玉川,大阪市立玉川小学校,おおさかしりつたまがわしょうがっこう,福島区玉川2-13-16,福島区
135.4736331,34.68582197,野田,大阪市立野田小学校,おおさかしりつのだしょうがっこう,福島区野田5-13-22,福島区
135.4729668,34.69004189,吉野,大阪市立吉野小学校,おおさかしりつよしのしょうがっこう,福島区吉野3-10-5,福島区
135.4706329,34.69262781,大開,大阪市立大開小学校,おおさかしりつおおひらきしょうがっこう,福島区大開2-10-28,福島区
135.4791058,34.69890614,鷺洲,大阪市立鷺洲小学校,おおさかしりつさぎすしょうがっこう,福島区鷺洲5-6-8,福島区
135.475217,34.69893311,海老江東,大阪市立海老江東小学校,おおさかしりつえびえひがししょうがっこう,福島区海老江1-6-19,福島区
135.4697166,34.69757194,海老江西,大阪市立海老江西小学校,おおさかしりつえびえにししょうがっこう,福島区海老江8-1-10,福島区
135.4852173,34.69718308,上福島,大阪市立上福島小学校,おおさかしりつかみふくしましょうがっこう,福島区福島7-4-33,福島区
135.4646441,34.68259392,西九条,大阪市立西九条小学校,おおさかしりつにしくじょうしょうがっこう,此花区西九条4-3-41,此花区
135.4542692,34.68512208,四貫島,大阪市立四貫島小学校,おおさかしりつしかんじましょうがっこう,此花区四貫島2-16-29,此花区
135.4392894,34.67782806,島屋,大阪市立島屋小学校,おおさかしりつしまやしょうがっこう,此花区島屋2-9-36,此花区
135.4514112,34.68998614,伝法,大阪市立伝法小学校,おおさかしりつでんぽうしょうがっこう,此花区伝法3-13-10,此花区
135.4552643,34.68237194,梅香,大阪市立梅香小学校,おおさかしりつばいかしょうがっこう,此花区梅香3-17-29,此花区
135.4603248,34.69055303,高見,大阪市立高見小学校,おおさかしりつたかみしょうがっこう,此花区高見1-3-35,此花区
135.4416892,34.68559706,酉島,大阪市立酉島小学校,おおさかしりつとりしましょうがっこう,此花区酉島2-5-12,此花区
135.4523282,34.68015617,春日出,大阪市立春日出小学校,おおさかしりつかすがでしょうがっこう,此花区春日出中1-13-23,此花区
135.5296421,34.67864697,玉造,大阪市立玉造小学校,おおさかしりつたまつくりしょうがっこう,中央区玉造2丁目3番43号,中央区
135.5148078,34.68030319,南大江,大阪市立南大江小学校,おおさかしりつみなみおおえしょうがっこう,中央区農人橋1丁目3番3号,中央区
135.5121284,34.68526392,中大江,大阪市立中大江小学校,おおさかしりつなかおおえしょうがっこう,中央区糸屋町2丁目3番14号,中央区
135.5105747,34.66580786,高津,大阪市立高津小学校,おおさかしりつこうづしょうがっこう,中央区高津3丁目4番21号,中央区
135.5041668,34.67323886,南,大阪市立南小学校,おおさかしりつみなみしょうがっこう,中央区東心斎橋1丁目14番29号,中央区
135.5083918,34.69043892,開平,大阪市立開平小学校,おおさかしりつかいへいしょうがっこう,中央区今橋1丁目5番7号,中央区
135.5127253,34.67108086,中央,大阪市立中央小学校,おおさかしりつちゅうおうしょうがっこう,中央区瓦屋町2丁目8番4号,中央区
135.4936363,34.68825808,西船場,大阪市立西船場小学校,おおさかしりつにしせんばしょうがっこう,西区江戸堀1-21-28,西区
135.4840079,34.67091389,日吉,大阪市立日吉小学校,おおさかしりつひよししょうがっこう,西区南堀江4-9-19,西区
135.472578,34.67296108,九条南,大阪市立九条南小学校,おおさかしりつくじょうみなみしょうがっこう,西区九条南2-13-17,西区
135.4723058,34.67541714,九条東,大阪市立九条東小学校,おおさかしりつくじょうひがししょうがっこう,西区九条2-6-2,西区
135.4679919,34.67721897,九条北,大阪市立九条北小学校,おおさかしりつくじょうきたしょうがっこう,西区九条南4-7-38,西区
135.4818028,34.68174406,本田,大阪市立本田小学校,おおさかしりつほんでんしょうがっこう,西区川口1-5-19,西区
135.4903033,34.67476703,堀江,大阪市立堀江小学校,おおさかしりつほりえしょうがっこう,西区北堀江3-2-16,西区
135.4916562,34.68054217,明治,大阪市立明治小学校,おおさかしりつめいじしょうがっこう,西区阿波座2-3-35,西区
135.487733,34.68067217,明治分校,大阪市立明治小学校分校,めいじしょうがっこうぶんこう,西区立売堀４丁目１０番１８号,西区
135.4642749,34.66345311,市岡,大阪市立市岡小学校,おおさかしりついちおかしょうがっこう,港区市岡3-2-24,港区
135.457047,34.66514992,磯路,大阪市立磯路小学校,おおさかしりついそじしょうがっこう,港区磯路3-7-7,港区
135.4528813,34.65932494,三先,大阪市立三先小学校,おおさかしりつみさきしょうがっこう,港区三先2-6-32,港区
135.4475777,34.66351703,田中,大阪市立田中小学校,おおさかしりつたなかしょうがっこう,港区田中2-10-34,港区
135.4462167,34.65512783,八幡屋,大阪市立八幡屋小学校,おおさかしりつやはたやしょうがっこう,港区八幡屋3-3-5,港区
135.4625582,34.671953,波除,大阪市立波除小学校,おおさかしりつなみよけしょうがっこう,港区波除3-6-8,港区
135.4363061,34.65304989,築港,大阪市立築港小学校,おおさかしりつちっこうしょうがっこう,港区築港1-10-38,港区
135.468578,34.66571403,南市岡,大阪市立南市岡小学校,おおさかしりつみなみいちおかしょうがっこう,港区南市岡2-6-35,港区
135.4440581,34.65635817,港晴,大阪市立港晴小学校,おおさかしりつこうせいしょうがっこう,港区港晴1-3-12,港区
135.4555581,34.668669,弁天,大阪市立弁天小学校,おおさかしりつべんてんしょうがっこう,港区弁天2-9-35,港区
135.4511498,34.65551097,池島,大阪市立池島小学校,おおさかしりついけじましょうがっこう,港区池島2-5-47,港区
135.477022,34.66498883,三軒家西,大阪市立三軒家西小学校,おおさかしりつさんげんやにししょうがっこう,大正区三軒家西1-20-26,大正区
135.4744887,34.653797,泉尾東,大阪市立泉尾東小学校,おおさかしりついずおひがししょうがっこう,大正区千島1-16-16,大正区
135.4694,34.65933306,中泉尾,大阪市立中泉尾小学校,おおさかしりつなかいずおしょうがっこう,大正区泉尾3-23-34,大正区
135.468161,34.65454406,北恩加島,大阪市立北恩加島小学校,おおさかしりつきたおかじましょうがっこう,大正区泉尾5-17-31,大正区
135.4692188,34.63661114,南恩加島,大阪市立南恩加島小学校,おおさかしりつみなみおかじましょうがっこう,大正区南恩加島3-6-11,大正区
135.4560533,34.63955606,鶴町,大阪市立鶴町小学校,おおさかしりつつるまちしょうがっこう,大正区鶴町2-6-24,大正区
135.4706168,34.66046692,泉尾北,大阪市立泉尾北小学校,おおさかしりついずおきたしょうがっこう,大正区泉尾2-21-28,大正区
135.4739423,34.64068317,平尾,大阪市立平尾小学校,おおさかしりつひらおしょうがっこう,大正区平尾2-21-28,大正区
135.4794582,34.66057183,三軒家東,大阪市立三軒家東小学校,おおさかしりつさんげんやひがししょうがっこう,大正区三軒家東2-12-63,大正区
135.4739693,34.64654417,小林,大阪市立小林小学校,おおさかしりつこばやししょうがっこう,大正区小林東2-4-45,大正区
,,鶴浜,大阪市立鶴浜小学校,,,大正区
135.5275798,34.67177792,真田山,大阪市立真田山小学校,おおさかしりつさなだやましょうがっこう,天王寺区玉造本町14-41,天王寺区
135.5281862,34.66731694,味原,大阪市立味原小学校,おおさかしりつあじはらしょうがっこう,天王寺区味原町8-19,天王寺区
135.5280467,34.66140606,桃陽,大阪市立桃陽小学校,おおさかしりつとうようしょうがっこう,天王寺区堂ヶ芝1-2-23,天王寺区
135.519464,34.65915314,五条,大阪市立五条小学校,おおさかしりつごじょうしょうがっこう,天王寺区小宮町9-28,天王寺区
135.5219609,34.65178108,聖和,大阪市立聖和小学校,おおさかしりつせいわしょうがっこう,天王寺区寺田町1-6-37,天王寺区
135.5145861,34.65632789,大江,大阪市立大江小学校,おおさかしりつおおえしょうがっこう,天王寺区四天王寺1-9-18,天王寺区
135.5171079,34.66323883,生魂,大阪市立生魂小学校,おおさかしりついくたましょうがっこう,天王寺区上汐4-1-25,天王寺区
135.5153279,34.65282489,天王寺,大阪市立天王寺小学校,おおさかしりつてんのうじしょうがっこう,天王寺区大道1-4-49,天王寺区
,,立葉,大阪市立立葉小学校,,,浪速区
135.490694,34.65823525,栄,大阪市立栄小学校,おおさかしりつさかえしょうがっこう,浪速区浪速東１－１－６１,浪速区
135.497133,34.66517208,難波元町,大阪市立難波元町小学校,おおさかしりつなんばもとまちしょうがっこう,浪速区元町1-5-30,浪速区
135.4965111,34.653494,大国,大阪市立大国小学校,おおさかしりつだいこくしょうがっこう,浪速区大国1-9-3,浪速区
135.5027473,34.65296086,恵美,大阪市立恵美小学校,おおさかしりつえみしょうがっこう,浪速区恵美須西2-13-9,浪速区
135.5082692,34.65814711,日東,大阪市立日東小学校,おおさかしりつにっとうしょうがっこう,浪速区日本橋東3-1-23,浪速区
135.5067971,34.66220294,日本橋,大阪市立日本橋小学校,おおさかしりつにっぽんばししょうがっこう,浪速区日本橋3-2-27,浪速区
135.4988079,34.65598317,敷津,大阪市立敷津小学校,おおさかしりつしきつしょうがっこう,浪速区敷津東3-9-32,浪速区
135.490589,34.66141897,塩草立葉,大阪市立塩草立葉小学校,おおさかしりつしおくさたてばしょうがっこう,浪速区塩草1-4-31,浪速区
135.503566,34.657936,浪速,大阪市立浪速小学校,おおさかしりつなみはやしょうがっこう,浪速区日本橋西1-7-6,浪速区
135.4655941,34.71024697,柏里,大阪市立柏里小学校,おおさかしりつかしわざとしょうがっこう,西淀川区柏里2丁目13番33号,西淀川区
135.4609392,34.71109692,野里,大阪市立野里小学校,おおさかしりつのざとしょうがっこう,西淀川区野里2丁目21番13号,西淀川区
135.4585218,34.70665617,姫里,大阪市立姫里小学校,おおさかしりつひめさとしょうがっこう,西淀川区姫里2丁目8番24号,西淀川区
135.4554112,34.70176689,姫島,大阪市立姫島小学校,おおさかしりつひめじましょうがっこう,西淀川区姫島1丁目10番4号,西淀川区
135.4418219,34.69814986,福,大阪市立福小学校,おおさかしりつふくしょうがっこう,西淀川区福町2丁目5番23号,西淀川区
135.4447999,34.70602217,大和田,大阪市立大和田小学校,おおさかしりつおおわだしょうがっこう,西淀川区大和田4丁目3番24号,西淀川区
135.4296031,34.70448608,川北,大阪市立川北小学校,おおさかしりつかわきたしょうがっこう,西淀川区中島1丁目11番20号,西淀川区
135.4471027,34.717125,佃,大阪市立佃小学校,おおさかしりつつくだしょうがっこう,西淀川区佃1丁目21番12号,西淀川区
135.4529918,34.72062492,香簑,大阪市立香簑小学校,おおさかしりつかみのしょうがっこう,西淀川区御幣島6丁目5番25号,西淀川区
135.4614668,34.714044,歌島,大阪市立歌島小学校,おおさかしりつうたじましょうがっこう,西淀川区歌島2丁目5番18号,西淀川区
135.4370667,34.70428892,出来島,大阪市立出来島小学校,おおさかしりつできじましょうがっこう,西淀川区出来島2丁目2番24号,西淀川区
135.4442171,34.71490317,佃西,大阪市立佃西小学校,おおさかしりつつくだにししょうがっこう,西淀川区佃2丁目15番30号,西淀川区
135.435381,34.71351383,佃南,大阪市立佃南小学校,おおさかしりつつくだみなみしょうがっこう,西淀川区佃5丁目12番12号,西淀川区
135.4564252,34.71720586,御幣島,大阪市立御幣島小学校,おおさかしりつみてじましょうがっこう,西淀川区御幣島3丁目5番5号,西淀川区
135.476772,34.72076703,神津,大阪市立神津小学校,おおさかしりつかみつしょうがっこう,淀川区十三元今里2-3-12,淀川区
135.4700219,34.72137803,田川,大阪市立田川小学校,おおさかしりつたがわしょうがっこう,淀川区田川2-9-37,淀川区
135.4583359,34.72886092,加島,大阪市立加島小学校,おおさかしりつかしましょうがっこう,淀川区加島1-60-28,淀川区
135.473439,34.72826694,三津屋,大阪市立三津屋小学校,おおさかしりつみつやしょうがっこう,淀川区三津屋中1-4-14,淀川区
135.4799029,34.73278592,新高,大阪市立新高小学校,おおさかしりつにいたかしょうがっこう,淀川区新高1-15-53,淀川区
135.480392,34.727886,野中,大阪市立野中小学校,おおさかしりつのなかしょうがっこう,淀川区野中北1-11-26,淀川区
135.4857172,34.72340589,十三,大阪市立十三小学校,おおさかしりつじゅうそうしょうがっこう,淀川区十三東4-3-6,淀川区
135.4921332,34.72662792,木川,大阪市立木川小学校,おおさかしりつきかわしょうがっこう,淀川区木川東3-7-32,淀川区
135.4878779,34.73842819,三国,大阪市立三国小学校,おおさかしりつみくにしょうがっこう,淀川区三国本町3-9-18,淀川区
135.496117,34.73946092,北中島,大阪市立北中島小学校,おおさかしりつきたなかじましょうがっこう,淀川区宮原5-3-4,淀川区
135.4942999,34.73007206,西中島,大阪市立西中島小学校,おおさかしりつにしなかじましょうがっこう,淀川区西中島7-14-25,淀川区
135.472161,34.71623892,塚本,大阪市立塚本小学校,おおさかしりつつかもとしょうがっこう,淀川区塚本3-5-6,淀川区
135.4945688,34.72345611,木川南,大阪市立木川南小学校,おおさかしりつきかわみなみしょうがっこう,淀川区木川東1-2-36,淀川区
135.4955753,34.74453103,東三国,大阪市立東三国小学校,おおさかしりつひがしみくにしょうがっこう,淀川区東三国6-3-24,淀川区
135.4914251,34.74475803,西三国,大阪市立西三国小学校,おおさかしりつにしみくにしょうがっこう,淀川区西三国1-21-28,淀川区
135.4999668,34.74529392,新東三国,大阪市立新東三国小学校,おおさかしりつしんひがしみくにしょうがっこう,淀川区東三国3-9-10,淀川区
135.4857671,34.73296717,宮原,大阪市立宮原小学校,おおさかしりつみやはらしょうがっこう,淀川区三国本町1-16-44,淀川区
135.5185282,34.73605594,東淡路,大阪市立東淡路小学校,おおさかしりつひがしあわじしょうがっこう,東淀川区東淡路3-3-32,東淀川区
135.5099111,34.73978608,西淡路,大阪市立西淡路小学校,おおさかしりつにしあわじしょうがっこう,東淀川区西淡路3-14-11,東淀川区
135.5230173,34.73957792,菅原,大阪市立菅原小学校,おおさかしりつすがはらしょうがっこう,東淀川区菅原6-3-25,東淀川区
135.5322967,34.748428,新庄,大阪市立新庄小学校,おおさかしりつしんじょうしょうがっこう,東淀川区上新庄2-20-5,東淀川区
135.5518862,34.75340606,大隅東,大阪市立大隅東小学校,おおさかしりつおおすみひがししょうがっこう,東淀川区瑞光5-8-19,東淀川区
135.5440534,34.741767,豊里,大阪市立豊里小学校,おおさかしりつとよさとしょうがっこう,東淀川区豊里5-14-60,東淀川区
135.5072828,34.73253603,啓発,大阪市立啓発小学校,おおさかしりつけいはつしょうがっこう,東淀川区東中島4-8-38,東淀川区
135.5395393,34.75487811,小松,大阪市立小松小学校,おおさかしりつこまつしょうがっこう,東淀川区小松3-18-15,東淀川区
135.5111939,34.742944,淡路,大阪市立淡路小学校,おおさかしりつあわじしょうがっこう,東淀川区西淡路5-5-32,東淀川区
135.5205561,34.74604386,下新庄,大阪市立下新庄小学校,おおさかしりつしもしんじょうしょうがっこう,東淀川区下新庄5-2-9,東淀川区
135.543889,34.76228083,井高野,大阪市立井高野小学校,おおさかしりついたかのしょうがっこう,東淀川区井高野1-28-17,東淀川区
135.5483579,34.74804417,大桐,大阪市立大桐小学校,おおさかしりつだいどうしょうがっこう,東淀川区大桐4-1-15,東淀川区
135.5357469,34.74568292,豊新,大阪市立豊新小学校,おおさかしりつほうしんしょうがっこう,東淀川区豊新4-17-26,東淀川区
135.5490747,34.76525006,東井高野,大阪市立東井高野小学校,おおさかしりつひがしいたかのしょうがっこう,東淀川区井高野2-8-28,東淀川区
135.5459189,34.75092203,大隅西,大阪市立大隅西小学校,おおさかしりつおおすみにししょうがっこう,東淀川区大隅2-3-18,東淀川区
135.5441167,34.73944394,豊里南,大阪市立豊里南小学校,おおさかしりつとよさとみなみしょうがっこう,東淀川区豊里5-12-41,東淀川区
135.5502753,34.74283586,大道南,大阪市立大道南小学校,おおさかしりつだいどうみなみしょうがっこう,東淀川区大道南1-23-6,東淀川区
135.5329919,34.66704211,東小橋,大阪市立東小橋小学校,おおさかしりつひがしおばせしょうがっこう,東成区東小橋3-10-37,東成区
135.5406173,34.66730808,大成,大阪市立大成小学校,おおさかしりつたいせいしょうがっこう,東成区大今里西3-2-62,東成区
135.537797,34.67252483,中道,大阪市立中道小学校,おおさかしりつなかみちしょうがっこう,東成区玉津1-7-39,東成区
135.5375249,34.679406,北中道,大阪市立北中道小学校,おおさかしりつきたなかみちしょうがっこう,東成区中道2-9-20,東成区
135.5392193,34.67648908,中本,大阪市立中本小学校,おおさかしりつなかもとしょうがっこう,東成区中本4-2-32,東成区
135.5456077,34.67928892,東中本,大阪市立東中本小学校,おおさかしりつひがしなかもとしょうがっこう,東成区東中本2-9-3,東成区
135.5448167,34.67187508,今里,大阪市立今里小学校,おおさかしりついまざとしょうがっこう,東成区大今里1-35-29,東成区
135.5465671,34.66633317,片江,大阪市立片江小学校,おおさかしりつかたえしょうがっこう,東成区大今里南2-13-2,東成区
135.5501473,34.66931917,神路,大阪市立神路小学校,おおさかしりつかみじしょうがっこう,東成区大今里4-6-19,東成区
135.5557609,34.67238594,深江,大阪市立深江小学校,おおさかしりつふかえしょうがっこう,東成区深江南1-4-6,東成区
135.5546169,34.67748308,宝栄,大阪市立宝栄小学校,おおさかしりつほうえいしょうがっこう,東成区神路1-15-48,東成区
135.534683,34.66399397,北鶴橋,大阪市立北鶴橋小学校,おおさかしりつきたつるはししょうがっこう,生野区鶴橋3丁目4番50号,生野区
135.5380719,34.65969217,御幸森,大阪市立御幸森小学校,おおさかしりつみゆきもりしょうがっこう,生野区桃谷5丁目5番37号,生野区
135.5325143,34.65904194,鶴橋,大阪市立鶴橋小学校,おおさかしりつつるはししょうがっこう,生野区桃谷2丁目20番32号,生野区
135.533314,34.65592514,東桃谷,大阪市立東桃谷小学校,おおさかしりつひがしももだにしょうがっこう,生野区勝山北3丁目7番21号,生野区
135.5274579,34.65389417,勝山,大阪市立勝山小学校,おおさかしりつかつやましょうがっこう,生野区勝山南1丁目3番5号,生野区
135.5326113,34.64480597,林寺,大阪市立林寺小学校,おおさかしりつはやしでらしょうがっこう,生野区林寺2丁目14番3号,生野区
135.5364893,34.64827494,生野,大阪市立生野小学校,おおさかしりついくのしょうがっこう,生野区舎利寺3丁目1番39号,生野区
135.544083,34.65969403,中川,大阪市立中川小学校,おおさかしりつなかがわしょうがっこう,生野区中川3丁目4番3号,生野区
135.5499721,34.65950597,東中川,大阪市立東中川小学校,おおさかしりつひがしなかがわしょうがっこう,生野区新今里7丁目14番37号,生野区
135.5548581,34.66065606,小路,大阪市立小路小学校,おおさかしりつしょうじしょうがっこう,生野区小路2丁目24番40号,生野区
135.5598437,34.65886903,東小路,大阪市立東小路小学校,おおさかしりつひがししょうじしょうがっこう,生野区小路東3丁目8番15号,生野区
135.5431688,34.648667,田島,大阪市立田島小学校,おおさかしりつたじましょうがっこう,生野区田島3丁目7番38号,生野区
135.5390893,34.65250603,舎利寺,大阪市立舎利寺小学校,おおさかしりつしゃりじしょうがっこう,生野区勝山南4丁目15番25号,生野区
135.5376751,34.64236417,生野南,大阪市立生野南小学校,おおさかしりついくのみなみしょうがっこう,生野区林寺6丁目6番7号,生野区
135.5515393,34.64601689,巽,大阪市立巽小学校,おおさかしりつたつみしょうがっこう,生野区巽中3丁目12番5号,生野区
135.5473863,34.65418603,北巽,大阪市立北巽小学校,おおさかしりつきたたつみしょうがっこう,生野区巽北1丁目30番29号,生野区
135.5287252,34.65133289,西生野,大阪市立西生野小学校,おおさかしりつにしいくのしょうがっこう,生野区生野西3丁目5番7号,生野区
135.5486779,34.63858083,巽南,大阪市立巽南小学校,おおさかしりつたつみみなみしょうがっこう,生野区巽南2丁目10番7号,生野区
135.5578562,34.649733,巽東,大阪市立巽東小学校,おおさかしりつたつみひがししょうがっこう,生野区巽東3丁目8番13号,生野区
135.5617187,34.72323903,清水,大阪市立清水小学校,おおさかしりつしみずしょうがっこう,旭区清水5-1-12,旭区
135.551356,34.72276686,古市,大阪市立古市小学校,おおさかしりつふるいちしょうがっこう,旭区森小路2-10-35,旭区
135.5459937,34.72715619,大宮,大阪市立大宮小学校,おおさかしりつおおみやしょうがっこう,旭区大宮4-9-16,旭区
135.5429141,34.71754403,高殿,大阪市立高殿小学校,おおさかしりつたかどのしょうがっこう,旭区高殿6-9-10,旭区
135.5416609,34.72282186,大宮西,大阪市立大宮西小学校,おおさかしりつおおみやにししょうがっこう,旭区中宮1-8-14,旭区
135.5370223,34.72301717,生江,大阪市立生江小学校,おおさかしりついくえしょうがっこう,旭区生江1-10-21,旭区
135.5298281,34.72762794,城北,大阪市立城北小学校,おおさかしりつしろきたしょうがっこう,旭区赤川3-13-47,旭区
135.5614688,34.716075,新森小路,大阪市立新森小路小学校,おおさかしりつしんもりしょうじしょうがっこう,旭区新森6-3-13,旭区
135.5539418,34.73254414,太子橋,大阪市立太子橋小学校,おおさかしりつたいしばししょうがっこう,旭区太子橋1-12-15,旭区
135.5393561,34.71390592,高殿南,大阪市立高殿南小学校,おおさかしりつたかどのみなみしょうがっこう,旭区高殿3-10-30,旭区
135.5391519,34.70914703,榎並,大阪市立榎並小学校,おおさかしりつえなみしょうがっこう,城東区野江4-1-28,城東区
135.5504929,34.71465614,関目,大阪市立関目小学校,おおさかしりつせきめしょうがっこう,城東区関目6-5-5,城東区
135.5482521,34.70159592,鯰江,大阪市立鯰江小学校,おおさかしりつなまずえしょうがっこう,城東区今福西3-9-27,城東区
135.5513358,34.69636694,今福,大阪市立今福小学校,おおさかしりついまふくしょうがっこう,城東区今福南2-1-53,城東区
135.5430252,34.69737806,聖賢,大阪市立聖賢小学校,おおさかしりつせいけんしょうがっこう,城東区新喜多2-4-35,城東区
135.5411724,34.69116942,鴫野,大阪市立鴫野小学校,おおさかしりつしぎのしょうがっこう,城東区鴫野西4-11-48,城東区
135.543639,34.68564397,中浜,大阪市立中浜小学校,おおさかしりつなかはましょうがっこう,城東区中浜2-12-35,城東区
135.5481308,34.69104717,城東,大阪市立城東小学校,おおさかしりつじょうとうしょうがっこう,城東区鴫野東3-16-41,城東区
135.5583581,34.68687792,諏訪,大阪市立諏訪小学校,おおさかしりつすわしょうがっこう,城東区永田2丁目15-5,城東区
135.5435528,34.70640581,成育,大阪市立成育小学校,おおさかしりつせいいくしょうがっこう,城東区成育1-5-19,城東区
135.5587752,34.71073914,すみれ,大阪市立すみれ小学校,おおさかしりつすみれしょうがっこう,城東区古市2-6-38,城東区
135.5486563,34.68401,東中浜,大阪市立東中浜小学校,おおさかしりつひがしなかはましょうがっこう,城東区東中浜5-4-5,城東区
135.555583,34.69463903,放出,大阪市立放出小学校,おおさかしりつはなてんしょうがっこう,城東区放出西2丁目2-18,城東区
135.5534143,34.71065608,関目東,大阪市立関目東小学校,おおさかしりつせきめひがししょうがっこう,城東区関目4-12-15,城東区
135.5373968,34.68343531,森之宮,大阪市立森之宮小学校,おおさかしりつもりのみやしょうがっこう,城東区森之宮1-6-64,城東区
135.5546923,34.70046114,鯰江東,大阪市立鯰江東小学校,おおさかしりつなまずえひがししょうがっこう,城東区今福東1-3-26,城東区
135.5683328,34.69476089,榎本,大阪市立榎本小学校,おおさかしりつえのもとしょうがっこう,鶴見区今津北1-5-35,鶴見区
135.5779282,34.69884189,茨田南,大阪市立茨田南小学校,おおさかしりつまったみなみしょうがっこう,鶴見区諸口1-3-71,鶴見区
135.5856579,34.70918914,茨田北,大阪市立茨田北小学校,おおさかしりつまったきたしょうがっこう,鶴見区浜3-8-66,鶴見区
135.5644137,34.70537783,鶴見,大阪市立鶴見小学校,おおさかしりつつるみしょうがっこう,鶴見区鶴見4-14-10,鶴見区
135.5771641,34.69323903,今津,大阪市立今津小学校,おおさかしりついまづしょうがっこう,鶴見区今津中4-1-48,鶴見区
135.5954857,34.70871908,茨田東,大阪市立茨田東小学校,おおさかしりつまったひがししょうがっこう,鶴見区茨田大宮3-7-61,鶴見区
135.5731642,34.70737803,茨田西,大阪市立茨田西小学校,おおさかしりつまったにししょうがっこう,鶴見区横堤5-13-61,鶴見区
135.570067,34.70148881,横堤,大阪市立横堤小学校,おおさかしりつよこづつみしょうがっこう,鶴見区横堤1-11-83,鶴見区
135.5640249,34.71046111,みどり,大阪市立みどり小学校,おおさかしりつみどりしょうがっこう,鶴見区緑2-4-45,鶴見区
135.5656082,34.69912808,鶴見南,大阪市立鶴見南小学校,おおさかしりつつるみみなみしょうがっこう,鶴見区鶴見2-17-22,鶴見区
135.5903862,34.70285289,茨田,大阪市立茨田小学校,おおさかしりつまったしょうがっこう,鶴見区安田2-1-8,鶴見区
135.5840713,34.71605764,焼野,大阪市立焼野小学校,おおさかしりつやけのしょうがっこう,鶴見区焼野１－３－４４,鶴見区
135.5251921,34.64382194,高松,大阪市立高松小学校,おおさかしりつたかまつしょうがっこう,阿倍野区天王寺町北3-17-19,阿倍野区
135.5171362,34.64137789,常盤,大阪市立常盤小学校,おおさかしりつときわしょうがっこう,阿倍野区松崎町3-11-12,阿倍野区
135.5177689,34.64154381,常盤分校,大阪市立常盤小学校分校,ときわしょうがっこうぶんこう,阿倍野区松崎町３丁目２番９号,阿倍野区
135.5075921,34.64280317,金塚,大阪市立金塚小学校,おおさかしりつかなづかしょうがっこう,阿倍野区旭町3-4-46,阿倍野区
135.5085252,34.63696111,丸山,大阪市立丸山小学校,おおさかしりつまるやましょうがっこう,阿倍野区丸山通1-4-43,阿倍野区
135.5043191,34.63218597,晴明丘,大阪市立晴明丘小学校,おおさかしりつせいめいがおかしょうがっこう,阿倍野区晴明通10-34,阿倍野区
135.5129968,34.63226692,阿倍野,大阪市立阿倍野小学校,おおさかしりつあべのしょうがっこう,阿倍野区阪南町2-17-21,阿倍野区
135.5122752,34.62460011,阪南,大阪市立阪南小学校,おおさかしりつはんなんしょうがっこう,阿倍野区阪南町5-7-40,阿倍野区
135.5173471,34.62274686,長池,大阪市立長池小学校,おおさかしりつながいけしょうがっこう,阿倍野区長池町20-26,阿倍野区
135.5163581,34.63571089,苗代,大阪市立苗代小学校,おおさかしりつなわしろしょうがっこう,阿倍野区阪南町1-26-30,阿倍野区
135.4966331,34.62410003,晴明丘南,大阪市立晴明丘南小学校,おおさかしりつせいめいがおかみなみしょうがっこう,阿倍野区帝塚山1-23-8,阿倍野区
135.4902939,34.61830283,粉浜,大阪市立粉浜小学校,おおさかしりつこはましょうがっこう,住之江区粉浜2-6-6,住之江区
135.4882222,34.60436417,安立,大阪市立安立小学校,おおさかしりつあんりゅうしょうがっこう,住之江区住之江1-4-29,住之江区
135.4775279,34.60255594,敷津浦,大阪市立敷津浦小学校,おおさかしりつしきつうらしょうがっこう,住之江区北島2-9-22,住之江区
135.4795222,34.62254394,加賀屋,大阪市立加賀屋小学校,おおさかしりつかがやしょうがっこう,住之江区北加賀屋2-5-26,住之江区
135.4780831,34.61510283,住吉川,大阪市立住吉川小学校,おおさかしりつすみよしがわしょうがっこう,住之江区西加賀屋4-1-4,住之江区
135.4905809,34.62312794,北粉浜,大阪市立北粉浜小学校,おおさかしりつきたこはましょうがっこう,住之江区粉浜1-5-48,住之江区
135.479219,34.60993311,住之江,大阪市立住之江小学校,おおさかしりつすみのえしょうがっこう,住之江区御崎4-6-43,住之江区
135.4559421,34.60904403,平林,大阪市立平林小学校,おおさかしりつひらばやししょうがっこう,住之江区平林南2-6-48,住之江区
135.4842748,34.62016911,加賀屋東,大阪市立加賀屋東小学校,おおさかしりつかがやひがししょうがっこう,住之江区東加賀屋1-6-25,住之江区
135.4633862,34.60576714,新北島,大阪市立新北島小学校,おおさかしりつしんきたじましょうがっこう,住之江区新北島6-2-56,住之江区
135.4233831,34.63384683,南港光,大阪市立南港光小学校,おおさかしりつなんこうひかりしょうがっこう,住之江区南港中4-4-22,住之江区
135.4275219,34.62765597,南港緑,大阪市立南港緑小学校,おおさかしりつなんこうみどりしょうがっこう,住之江区南港中2-7-18,住之江区
135.4208357,34.63541894,南港桜,大阪市立南港桜小学校,おおさかしりつなんこうさくらしょうがっこう,住之江区南港中5-2-48,住之江区
135.4260033,34.62692194,南港渚,大阪市立南港渚小学校,おおさかしりつなんこうなぎさしょうがっこう,住之江区南港中3-7-13,住之江区
135.4804082,34.60791394,清江,大阪市立清江小学校,おおさかしりつきよえしょうがっこう,住之江区御崎5-7-18,住之江区
135.4945223,34.61963094,東粉浜,大阪市立東粉浜小学校,おおさかしりつひがしこはましょうがっこう,住吉区東粉浜2丁目3番26号,住吉区
135.4962753,34.61796092,住吉,大阪市立住吉小学校,おおさかしりつすみよししょうがっこう,住吉区帝塚山西4丁目1番35号,住吉区
135.5139171,34.60871097,長居,大阪市立長居小学校,おおさかしりつながいしょうがっこう,住吉区長居東3丁目3番40号,住吉区
135.508183,34.59693289,依羅,大阪市立依羅小学校,おおさかしりつよさみしょうがっこう,住吉区我孫子4丁目11番48号,住吉区
135.4952782,34.60802483,墨江,大阪市立墨江小学校,おおさかしりつすみえしょうがっこう,住吉区墨江2丁目3番46号,住吉区
135.495,34.59759211,遠里小野,大阪市立遠里小野小学校,おおさかしりつおりおのしょうがっこう,住吉区遠里小野6丁目6番27号,住吉区
135.4924168,34.60196108,清水丘,大阪市立清水丘小学校,おおさかしりつしみずがおかしょうがっこう,住吉区清水丘2丁目9番41号,住吉区
135.502853,34.60493092,南住吉,大阪市立南住吉小学校,おおさかしりつみなみすみよししょうがっこう,住吉区南住吉3丁目5番1号,住吉区
135.5074971,34.61568281,大領,大阪市立大領小学校,おおさかしりつだいりょうしょうがっこう,住吉区大領3丁目3番5号,住吉区
135.5161782,34.60195,苅田,大阪市立苅田小学校,おおさかしりつかりたしょうがっこう,住吉区苅田3丁目5番34号,住吉区
135.5001359,34.59654392,山之内,大阪市立山之内小学校,おおさかしりつやまのうちしょうがっこう,住吉区山之内2丁目17番39号,住吉区
135.5138059,34.59457211,苅田南,大阪市立苅田南小学校,おおさかしりつかりたみなみしょうがっこう,住吉区苅田10丁目1番35号,住吉区
135.5207441,34.60384214,苅田北,大阪市立苅田北小学校,おおさかしりつかりたきたしょうがっこう,住吉区苅田1丁目11番39号,住吉区
135.5082651,34.60578269,大空,大阪市立大空小学校,おおさかしりつおおぞらしょうがっこう,住吉区我孫子西1丁目6番12号,住吉区
135.5308468,34.63569389,桑津,大阪市立桑津小学校,おおさかしりつくわづしょうがっこう,東住吉区桑津5-13-13,東住吉区
135.5246969,34.63300606,北田辺,大阪市立北田辺小学校,おおさかしりつきたたなべしょうがっこう,東住吉区北田辺3-11-14,東住吉区
135.5260221,34.62588892,田辺,大阪市立田辺小学校,おおさかしりつたなべしょうがっこう,東住吉区田辺2-3-34,東住吉区
135.5278581,34.62018317,東田辺,大阪市立東田辺小学校,おおさかしりつひがしたなべしょうがっこう,東住吉区東田辺2-14-6,東住吉区
135.5219582,34.61761717,南田辺,大阪市立南田辺小学校,おおさかしりつみなみたなべしょうがっこう,東住吉区南田辺4-3-4,東住吉区
135.5349168,34.61521114,南百済,大阪市立南百済小学校,おおさかしりつみなみくだらしょうがっこう,東住吉区湯里１-15-40,東住吉区
135.5376333,34.634906,育和,大阪市立育和小学校,おおさかしりついくわしょうがっこう,東住吉区杭全4-10-12,東住吉区
135.5294003,34.61225611,鷹合,大阪市立鷹合小学校,おおさかしりつたかあいしょうがっこう,東住吉区鷹合3-12-38,東住吉区
135.5354437,34.62715589,今川,大阪市立今川小学校,おおさかしりついまがわしょうがっこう,東住吉区今川4-24-4,東住吉区
135.5281114,34.60323917,矢田,大阪市立矢田小学校,おおさかしりつやたしょうがっこう,東住吉区矢田3-4-27,東住吉区
135.5375862,34.60292194,矢田東,大阪市立矢田東小学校,おおさかしりつやたひがししょうがっこう,東住吉区住道矢田2-7-43,東住吉区
135.5253861,34.60448097,矢田西,大阪市立矢田西小学校,おおさかしりつやたにししょうがっこう,東住吉区公園南矢田2-15-43,東住吉区
135.5364779,34.60890283,矢田北,大阪市立矢田北小学校,おおさかしりつやたきたしょうがっこう,東住吉区照ヶ丘矢田2-1-55,東住吉区
135.5393972,34.61049686,湯里,大阪市立湯里小学校,おおさかしりつゆざとしょうがっこう,東住吉区湯里6-8-3,東住吉区
135.5553829,34.61144211,喜連,大阪市立喜連小学校,おおさかしりつきれしょうがっこう,平野区喜連7-6-4,平野区
135.5477219,34.62521106,平野西,大阪市立平野西小学校,おおさかしりつひらのにししょうがっこう,平野区背戸口4-1-31,平野区
135.5545441,34.62722503,平野,大阪市立平野小学校,おおさかしりつひらのしょうがっこう,平野区平野宮町1-9-29,平野区
135.5692781,34.60588103,長吉,大阪市立長吉小学校,おおさかしりつながよししょうがっこう,平野区長吉長原2-6-55,平野区
135.552911,34.602675,瓜破,大阪市立瓜破小学校,おおさかしりつうりわりしょうがっこう,平野区瓜破5-3-11,平野区
135.5634394,34.63076567,加美,大阪市立加美小学校,おおさかしりつかみしょうがっこう,平野区加美正覚寺3-13-35,平野区
135.5702503,34.62433289,加美南部,大阪市立加美南部小学校,おおさかしりつかみなんぶしょうがっこう,平野区加美南1-9-17,平野区
135.5580833,34.61818603,平野南,大阪市立平野南小学校,おおさかしりつひらのみなみしょうがっこう,平野区平野南2-3-8,平野区
135.5762499,34.60829692,長吉東,大阪市立長吉東小学校,おおさかしりつながよしひがししょうがっこう,平野区長吉出戸8-13-41,平野区
135.5448389,34.61254186,喜連西,大阪市立喜連西小学校,おおさかしりつきれにししょうがっこう,平野区喜連西3-17-61,平野区
135.5780279,34.60482517,長吉南,大阪市立長吉南小学校,おおさかしりつながよしみなみしょうがっこう,平野区長吉六反3-2-17,平野区
135.5511532,34.60491908,瓜破北,大阪市立瓜破北小学校,おおさかしりつうりわりきたしょうがっこう,平野区瓜破1-8-33,平野区
135.5773892,34.59957494,長原,大阪市立長原小学校,おおさかしりつながはらしょうがっこう,平野区長吉長原東3-10-9,平野区
135.5612498,34.61365786,喜連東,大阪市立喜連東小学校,おおさかしりつきれひがししょうがっこう,平野区喜連東2-2-17,平野区
135.5607438,34.60700303,瓜破東,大阪市立瓜破東小学校,おおさかしりつうりわりひがししょうがっこう,平野区瓜破東2-5-78,平野区
135.5862501,34.60674203,長吉六反,大阪市立長吉六反小学校,おおさかしりつながよしろくたんしょうがっこう,平野区長吉六反5-3-41,平野区
135.5602783,34.63651911,加美北,大阪市立加美北小学校,おおさかしりつかみきたしょうがっこう,平野区加美北7-4-10,平野区
135.5702307,34.61311706,長吉出戸,大阪市立長吉出戸小学校,おおさかしりつながよしでとしょうがっこう,平野区長吉出戸3-1-43,平野区
135.5446442,34.6042,瓜破西,大阪市立瓜破西小学校,おおさかしりつうりわりにししょうがっこう,平野区瓜破西2-1-43,平野区
135.5503501,34.61442194,喜連北,大阪市立喜連北小学校,おおさかしりつきれきたしょうがっこう,平野区喜連1-7-4,平野区
135.5715829,34.62718583,加美東,大阪市立加美東小学校,おおさかしりつかみひがししょうがっこう,平野区加美東5-9-25,平野区
135.5693892,34.59685303,川辺,大阪市立川辺小学校,おおさかしりつかわなべしょうがっこう,平野区長吉川辺1-4-9,平野区
135.5417222,34.62426708,新平野西,大阪市立新平野西小学校,おおさかしりつしんひらのにししょうがっこう,平野区背戸口1-5-22,平野区
,,萩之茶屋,大阪市立萩之茶屋小学校,,,西成区
,,今宮,大阪市立今宮小学校,,,西成区
135.5013472,34.63714219,天下茶屋,大阪市立天下茶屋小学校,おおさかしりつてんがちゃやしょうがっこう,西成区聖天下1-11-35,西成区
135.4915612,34.63387492,岸里,大阪市立岸里小学校,おおさかしりつきしのさとしょうがっこう,西成区千本中1-8-22,西成区
135.4917748,34.62482186,玉出,大阪市立玉出小学校,おおさかしりつたまでしょうがっこう,西成区玉出中2-13-56,西成区
135.4883859,34.631503,千本,大阪市立千本小学校,おおさかしりつせんぼんしょうがっこう,西成区千本中2-8-8,西成区
135.4914999,34.63907789,橘,大阪市立橘小学校,おおさかしりつたちばなしょうがっこう,西成区橘2-1-18,西成区
135.489003,34.64243106,梅南津守,大阪市立梅南津守小学校,おおさかしりつばいなんつもりしょうがっこう,西成区梅南3-2-25,西成区
,,弘治,大阪市立弘治小学校,,,西成区
135.488144,34.64509383,松之宮,大阪市立松之宮小学校,おおさかしりつまつのみやしょうがっこう,西成区旭3-5-39,西成区
135.4923583,34.64812789,長橋,大阪市立長橋小学校,おおさかしりつながはししょうがっこう,西成区長橋2-3-21,西成区
135.4831078,34.65151689,北津守,大阪市立北津守小学校,おおさかしりつきたつもりしょうがっこう,西成区北津守3-3-40,西成区
,,津守,大阪市立津守小学校,,,西成区
135.4853857,34.62801892,南津守,大阪市立南津守小学校,おおさかしりつみなみつもりしょうがっこう,西成区南津守6-1-14,西成区
135.498827,34.648302,新今宮,大阪市立新今宮小学校,おおさかしりつしんいまみやしょうがっこう,西成区花園北1-8-32,西成区
135.5140809,34.809517,弘済,大阪市立弘済小学校,こうさいしょうがっこう,吹田市古江台６丁目２番２号,大阪市以外
135.5778689,34.86619783,弘済分校,大阪市立弘済小学校分校,こうさいしょうがっこうぶんこう,高槻市奈佐原９５６,大阪市以外
135.6245615,34.56201328,長谷川,大阪市立長谷川小学校,はせがわしょうがっこう,柏原市円明町３丁目１５番,大阪市以外